FALCONSAT-6             
1 43815U 18099BK  26068.72544389  .00005029  00000+0  19477-3 0  9998
2 43815  97.3865 145.8165 0014370 297.0944 181.0714 15.26532865398556
STARLINK-31632          
1 59326U 24057G   26068.39265222 -.00003432  00000+0 -11518-3 0  9998
2 59326  42.9986 199.9940 0001386 285.8027  74.2672 15.27596218109662
